[Satellite]
VERSION=1.1
NAME=TIANWANG 1C (TW-1C)
NICKNAME=TIANWANG 1C (TW-1C)
TLE1=1 40926U 15051B   18021.18470400  .00005982  00000-0  12121-3 0  9993
TLE2=2 40926  97.2027  64.2994 0012500  94.2105 301.8847 15.46695430130573
